[{"OBJECT_NAME":"STARLINK-30152","OBJECT_ID":"2023-079F","EPOCH":"2026-03-09T22:00:01.999584","MEAN_MOTION":15.1944586,"ECCENTRICITY":0.00011484,"INCLINATION":43.0001,"RA_OF_ASC_NODE":105.2934,"ARG_OF_PERICENTER":245.247,"MEAN_ANOMALY":289.956,"EPHEMERIS_TYPE":0,"CLASSIFICATION_TYPE":"U","NORAD_CAT_ID":56828,"ELEMENT_SET_NO":999,"REV_AT_EPOCH":578,"BSTAR":0.053468986,"MEAN_MOTION_DOT":0.01265867,"MEAN_MOTION_DDOT":0},{"OBJECT_NAME":"MACSAT (FINCH 1)","OBJECT_ID":"2023-155J","EPOCH":"2026-03-09T18:08:25.338048","MEAN_MOTION":15.19694714,"ECCENTRICITY":0.00037335,"INCLINATION":97.5815,"RA_OF_ASC_NODE":150.2689,"ARG_OF_PERICENTER":71.2233,"MEAN_ANOMALY":288.9406,"EPHEMERIS_TYPE":0,"CLASSIFICATION_TYPE":"U","NORAD_CAT_ID":58024,"ELEMENT_SET_NO":999,"REV_AT_EPOCH":13322,"BSTAR":0.00027017053,"MEAN_MOTION_DOT":5.699e-5,"MEAN_MOTION_DDOT":0}]
